[{"OBJECT_NAME":"CS2","OBJECT_ID":"2021-088C","EPOCH":"2026-03-09T17:38:11.846112","MEAN_MOTION":15.3325593,"ECCENTRICITY":0.00116375,"INCLINATION":97.3928,"RA_OF_ASC_NODE":134.2907,"ARG_OF_PERICENTER":82.3491,"MEAN_ANOMALY":277.9072,"EPHEMERIS_TYPE":0,"CLASSIFICATION_TYPE":"U","NORAD_CAT_ID":49262,"ELEMENT_SET_NO":999,"REV_AT_EPOCH":24526,"BSTAR":0.0005617759,"MEAN_MOTION_DOT":0.00018033,"MEAN_MOTION_DDOT":0},{"OBJECT_NAME":"STARLINK-32808","OBJECT_ID":"2025-022K","EPOCH":"2026-03-09T11:12:37.392480","MEAN_MOTION":15.301775,"ECCENTRICITY":0.00010344,"INCLINATION":53.1575,"RA_OF_ASC_NODE":130.8162,"ARG_OF_PERICENTER":77.7173,"MEAN_ANOMALY":282.3943,"EPHEMERIS_TYPE":0,"CLASSIFICATION_TYPE":"U","NORAD_CAT_ID":62863,"ELEMENT_SET_NO":999,"REV_AT_EPOCH":6186,"BSTAR":0.00051852455,"MEAN_MOTION_DOT":0.00015019,"MEAN_MOTION_DDOT":0}]
